[
  {
    "COMMENT": "GENERATED VIA SPACETRACK.ORG API",
    "ORIGINATOR": "18 SPCS",
    "NORAD_CAT_ID": "39086",
    "OBJECT_NAME": "SARAL",
    "OBJECT_TYPE": "PAYLOAD",
    "CLASSIFICATION_TYPE": "U",
    "INTLDES": "13009A",
    "EPOCH": "2023-05-15 11:22:10",
    "EPOCH_MICROSECONDS": "67232",
    "MEAN_MOTION": "14.3218955",
    "ECCENTRICITY": "0.0002557",
    "INCLINATION": "98.5482",
    "RA_OF_ASC_NODE": "321.2403",
    "ARG_OF_PERICENTER": "49.4187",
    "MEAN_ANOMALY": "310.7219",
    "EPHEMERIS_TYPE": "0",
    "ELEMENT_SET_NO": "999",
    "REV_AT_EPOCH": "53400",
    "BSTAR": "0.000078611",
    "MEAN_MOTION_DOT": "0.00000168",
    "MEAN_MOTION_DDOT": "0",
    "FILE": "3908681",
    "TLE_LINE0": "0 SARAL",
    "TLE_LINE1": "1 39086U 13009A   23135.47372763  .00000168  00000-0  78611-4 0  9994",
    "TLE_LINE2": "2 39086  98.5482 321.2403 0002557  49.4187 310.7219 14.32189550534004",
    "OBJECT_ID": "2013-009A",
    "OBJECT_NUMBER": "39086",
    "SEMIMAJOR_AXIS": "7162.558",
    "PERIOD": "100.545",
    "APOGEE": "786.255",
    "PERIGEE": "782.592",
    "DECAYED": "0"
  },
  {
    "COMMENT": "GENERATED VIA SPACETRACK.ORG API",
    "ORIGINATOR": "18 SPCS",
    "NORAD_CAT_ID": "39086",
    "OBJECT_NAME": "SARAL",
    "OBJECT_TYPE": "PAYLOAD",
    "CLASSIFICATION_TYPE": "U",
    "INTLDES": "13009A",
    "EPOCH": "2023-05-15 18:04:34",
    "EPOCH_MICROSECONDS": "770144",
    "MEAN_MOTION": "14.32189668",
    "ECCENTRICITY": "0.0002545",
    "INCLINATION": "98.5483",
    "RA_OF_ASC_NODE": "321.5157",
    "ARG_OF_PERICENTER": "48.9352",
    "MEAN_ANOMALY": "311.2052",
    "EPHEMERIS_TYPE": "0",
    "ELEMENT_SET_NO": "999",
    "REV_AT_EPOCH": "53404",
    "BSTAR": "0.000078292",
    "MEAN_MOTION_DOT": "0.00000167",
    "MEAN_MOTION_DDOT": "0",
    "FILE": "3908721",
    "TLE_LINE0": "0 SARAL",
    "TLE_LINE1": "1 39086U 13009A   23135.75318021  .00000167  00000-0  78292-4 0  9996",
    "TLE_LINE2": "2 39086  98.5483 321.5157 0002545  48.9352 311.2052 14.32189668534044",
    "OBJECT_ID": "2013-009A",
    "OBJECT_NUMBER": "39086",
    "SEMIMAJOR_AXIS": "7162.558",
    "PERIOD": "100.545",
    "APOGEE": "786.246",
    "PERIGEE": "782.600",
    "DECAYED": "0"
  },
  {
    "COMMENT": "GENERATED VIA SPACETRACK.ORG API",
    "ORIGINATOR": "18 SPCS",
    "NORAD_CAT_ID": "39086",
    "OBJECT_NAME": "SARAL",
    "OBJECT_TYPE": "PAYLOAD",
    "CLASSIFICATION_TYPE": "U",
    "INTLDES": "13009A",
    "EPOCH": "2023-05-15 18:04:34",
    "EPOCH_MICROSECONDS": "770144",
    "MEAN_MOTION": "14.32189668",
    "ECCENTRICITY": "0.0002545",
    "INCLINATION": "98.5483",
    "RA_OF_ASC_NODE": "321.5157",
    "ARG_OF_PERICENTER": "48.9352",
    "MEAN_ANOMALY": "311.2052",
    "EPHEMERIS_TYPE": "0",
    "ELEMENT_SET_NO": "999",
    "REV_AT_EPOCH": "53404",
    "BSTAR": "0.000078292",
    "MEAN_MOTION_DOT": "0.00000167",
    "MEAN_MOTION_DDOT": "0",
    "FILE": "3908892",
    "TLE_LINE0": "0 SARAL",
    "TLE_LINE1": "1 39086U 13009A   23135.75318021  .00000167  00000-0  78292-4 0  9996",
    "TLE_LINE2": "2 39086  98.5483 321.5157 0002545  48.9352 311.2052 14.32189668534044",
    "OBJECT_ID": "2013-009A",
    "OBJECT_NUMBER": "39086",
    "SEMIMAJOR_AXIS": "7162.558",
    "PERIOD": "100.545",
    "APOGEE": "786.246",
    "PERIGEE": "782.600",
    "DECAYED": "0"
  },
  {
    "COMMENT": "GENERATED VIA SPACETRACK.ORG API",
    "ORIGINATOR": "18 SPCS",
    "NORAD_CAT_ID": "39086",
    "OBJECT_NAME": "SARAL",
    "OBJECT_TYPE": "PAYLOAD",
    "CLASSIFICATION_TYPE": "U",
    "INTLDES": "13009A",
    "EPOCH": "2023-05-16 14:11:48",
    "EPOCH_MICROSECONDS": "863328",
    "MEAN_MOTION": "14.32190003",
    "ECCENTRICITY": "0.0002507",
    "INCLINATION": "98.5482",
    "RA_OF_ASC_NODE": "322.3418",
    "ARG_OF_PERICENTER": "47.2501",
    "MEAN_ANOMALY": "312.8893",
    "EPHEMERIS_TYPE": "0",
    "ELEMENT_SET_NO": "999",
    "REV_AT_EPOCH": "53416",
    "BSTAR": "0.000073195",
    "MEAN_MOTION_DOT": "0.00000154",
    "MEAN_MOTION_DDOT": "0",
    "FILE": "3909472",
    "TLE_LINE0": "0 SARAL",
    "TLE_LINE1": "1 39086U 13009A   23136.59153777  .00000154  00000-0  73195-4 0  9997",
    "TLE_LINE2": "2 39086  98.5482 322.3418 0002507  47.2501 312.8893 14.32190003534166",
    "OBJECT_ID": "2013-009A",
    "OBJECT_NUMBER": "39086",
    "SEMIMAJOR_AXIS": "7162.557",
    "PERIOD": "100.545",
    "APOGEE": "786.218",
    "PERIGEE": "782.626",
    "DECAYED": "0"
  },
  {
    "COMMENT": "GENERATED VIA SPACETRACK.ORG API",
    "ORIGINATOR": "18 SPCS",
    "NORAD_CAT_ID": "39086",
    "OBJECT_NAME": "SARAL",
    "OBJECT_TYPE": "PAYLOAD",
    "CLASSIFICATION_TYPE": "U",
    "INTLDES": "13009A",
    "EPOCH": "2023-05-16 20:54:13",
    "EPOCH_MICROSECONDS": "559328",
    "MEAN_MOTION": "14.32190083",
    "ECCENTRICITY": "0.0002499",
    "INCLINATION": "98.5482",
    "RA_OF_ASC_NODE": "322.6173",
    "ARG_OF_PERICENTER": "46.6958",
    "MEAN_ANOMALY": "313.4434",
    "EPHEMERIS_TYPE": "0",
    "ELEMENT_SET_NO": "999",
    "REV_AT_EPOCH": "53420",
    "BSTAR": "0.000071002",
    "MEAN_MOTION_DOT": "0.00000148",
    "MEAN_MOTION_DDOT": "0",
    "FILE": "3909742",
    "TLE_LINE0": "0 SARAL",
    "TLE_LINE1": "1 39086U 13009A   23136.87099027  .00000148  00000-0  71002-4 0  9993",
    "TLE_LINE2": "2 39086  98.5482 322.6173 0002499  46.6958 313.4434 14.32190083534207",
    "OBJECT_ID": "2013-009A",
    "OBJECT_NUMBER": "39086",
    "SEMIMAJOR_AXIS": "7162.557",
    "PERIOD": "100.545",
    "APOGEE": "786.212",
    "PERIGEE": "782.632",
    "DECAYED": "0"
  },
  {
    "COMMENT": "GENERATED VIA SPACETRACK.ORG API",
    "ORIGINATOR": "18 SPCS",
    "NORAD_CAT_ID": "39086",
    "OBJECT_NAME": "SARAL",
    "OBJECT_TYPE": "PAYLOAD",
    "CLASSIFICATION_TYPE": "U",
    "INTLDES": "13009A",
    "EPOCH": "2023-05-17 01:56:02",
    "EPOCH_MICROSECONDS": "78304",
    "MEAN_MOTION": "14.32190163",
    "ECCENTRICITY": "0.0002489",
    "INCLINATION": "98.5482",
    "RA_OF_ASC_NODE": "322.8238",
    "ARG_OF_PERICENTER": "46.3041",
    "MEAN_ANOMALY": "313.8349",
    "EPHEMERIS_TYPE": "0",
    "ELEMENT_SET_NO": "999",
    "REV_AT_EPOCH": "53423",
    "BSTAR": "0.000069015",
    "MEAN_MOTION_DOT": "0.00000142",
    "MEAN_MOTION_DDOT": "0",
    "FILE": "3909753",
    "TLE_LINE0": "0 SARAL",
    "TLE_LINE1": "1 39086U 13009A   23137.08057961  .00000142  00000-0  69015-4 0  9993",
    "TLE_LINE2": "2 39086  98.5482 322.8238 0002489  46.3041 313.8349 14.32190163534231",
    "OBJECT_ID": "2013-009A",
    "OBJECT_NUMBER": "39086",
    "SEMIMAJOR_AXIS": "7162.556",
    "PERIOD": "100.545",
    "APOGEE": "786.204",
    "PERIGEE": "782.639",
    "DECAYED": "0"
  },
  {
    "COMMENT": "GENERATED VIA SPACETRACK.ORG API",
    "ORIGINATOR": "18 SPCS",
    "NORAD_CAT_ID": "39086",
    "OBJECT_NAME": "SARAL",
    "OBJECT_TYPE": "PAYLOAD",
    "CLASSIFICATION_TYPE": "U",
    "INTLDES": "13009A",
    "EPOCH": "2023-05-17 22:03:16",
    "EPOCH_MICROSECONDS": "150752",
    "MEAN_MOTION": "14.32190445",
    "ECCENTRICITY": "0.0002456",
    "INCLINATION": "98.5482",
    "RA_OF_ASC_NODE": "323.65",
    "ARG_OF_PERICENTER": "44.7224",
    "MEAN_ANOMALY": "315.4157",
    "EPHEMERIS_TYPE": "0",
    "ELEMENT_SET_NO": "999",
    "REV_AT_EPOCH": "53435",
    "BSTAR": "0.000063665",
    "MEAN_MOTION_DOT": "0.00000128",
    "MEAN_MOTION_DDOT": "0",
    "FILE": "3910633",
    "TLE_LINE0": "0 SARAL",
    "TLE_LINE1": "1 39086U 13009A   23137.91893693  .00000128  00000-0  63665-4 0  9994",
    "TLE_LINE2": "2 39086  98.5482 323.6500 0002456  44.7224 315.4157 14.32190445534352",
    "OBJECT_ID": "2013-009A",
    "OBJECT_NUMBER": "39086",
    "SEMIMAJOR_AXIS": "7162.555",
    "PERIOD": "100.545",
    "APOGEE": "786.180",
    "PERIGEE": "782.661",
    "DECAYED": "0"
  },
  {
    "COMMENT": "GENERATED VIA SPACETRACK.ORG API",
    "ORIGINATOR": "18 SPCS",
    "NORAD_CAT_ID": "39086",
    "OBJECT_NAME": "SARAL",
    "OBJECT_TYPE": "PAYLOAD",
    "CLASSIFICATION_TYPE": "U",
    "INTLDES": "13009A",
    "EPOCH": "2023-05-18 03:05:04",
    "EPOCH_MICROSECONDS": "666272",
    "MEAN_MOTION": "14.32190498",
    "ECCENTRICITY": "0.0002442",
    "INCLINATION": "98.5481",
    "RA_OF_ASC_NODE": "323.8565",
    "ARG_OF_PERICENTER": "44.3806",
    "MEAN_ANOMALY": "315.7573",
    "EPHEMERIS_TYPE": "0",
    "ELEMENT_SET_NO": "999",
    "REV_AT_EPOCH": "53438",
    "BSTAR": "0.000061024",
    "MEAN_MOTION_DOT": "0.00000121",
    "MEAN_MOTION_DDOT": "0",
    "FILE": "3910685",
    "TLE_LINE0": "0 SARAL",
    "TLE_LINE1": "1 39086U 13009A   23138.12852623  .00000121  00000-0  61024-4 0  9996",
    "TLE_LINE2": "2 39086  98.5481 323.8565 0002442  44.3806 315.7573 14.32190498534387",
    "OBJECT_ID": "2013-009A",
    "OBJECT_NUMBER": "39086",
    "SEMIMAJOR_AXIS": "7162.555",
    "PERIOD": "100.545",
    "APOGEE": "786.169",
    "PERIGEE": "782.671",
    "DECAYED": "0"
  },
  {
    "COMMENT": "GENERATED VIA SPACETRACK.ORG API",
    "ORIGINATOR": "18 SPCS",
    "NORAD_CAT_ID": "39086",
    "OBJECT_NAME": "SARAL",
    "OBJECT_TYPE": "PAYLOAD",
    "CLASSIFICATION_TYPE": "U",
    "INTLDES": "13009A",
    "EPOCH": "2023-05-18 13:08:41",
    "EPOCH_MICROSECONDS": "695584",
    "MEAN_MOTION": "14.32190626",
    "ECCENTRICITY": "0.000243",
    "INCLINATION": "98.5481",
    "RA_OF_ASC_NODE": "324.2696",
    "ARG_OF_PERICENTER": "43.4059",
    "MEAN_ANOMALY": "316.7315",
    "EPHEMERIS_TYPE": "0",
    "ELEMENT_SET_NO": "999",
    "REV_AT_EPOCH": "53444",
    "BSTAR": "0.000059199",
    "MEAN_MOTION_DOT": "0.00000116",
    "MEAN_MOTION_DDOT": "0",
    "FILE": "3911221",
    "TLE_LINE0": "0 SARAL",
    "TLE_LINE1": "1 39086U 13009A   23138.54770481  .00000116  00000-0  59199-4 0  9997",
    "TLE_LINE2": "2 39086  98.5481 324.2696 0002430  43.4059 316.7315 14.32190626534449",
    "OBJECT_ID": "2013-009A",
    "OBJECT_NUMBER": "39086",
    "SEMIMAJOR_AXIS": "7162.555",
    "PERIOD": "100.545",
    "APOGEE": "786.160",
    "PERIGEE": "782.679",
    "DECAYED": "0"
  }
]